{
  "type": "FeatureCollection",
  "features": [
    {
      "type": "Feature",
      "properties": {
        "norad_id": 66732,
        "name": "FLOCK 4H-29",
        "group": "last-30-days",
        "lat": 75.6837206258573,
        "lon": -77.23416062875451,
        "alt_km": 508.03186839299633,
        "timestamp": "2025-12-26T11:25:43.985265+00:00",
        "meta_object_name": "FLOCK 4H-29",
        "meta_object_id": "2025-276BU",
        "meta_epoch": "2025-12-26T03:03:58.062240",
        "meta_mean_motion": 15.17326528,
        "meta_eccentricity": 0.000199,
        "meta_inclination": 97.4368,
        "meta_ra_of_asc_node": 71.6373,
        "meta_arg_of_pericenter": 263.8004,
        "meta_mean_anomaly": 96.3003,
        "meta_ephemeris_type": 0,
        "meta_classification_type": "U",
        "meta_norad_cat_id": 66732,
        "meta_element_set_no": 999,
        "meta_rev_at_epoch": 415,
        "meta_bstar": 0.00065654,
        "meta_mean_motion_dot": 0.00013041,
        "meta_mean_motion_ddot": 0,
        "tle_line1": "1 66732U 25276BU  25360.12775535  .00013041  00000+0  65654-3 0  9994",
        "tle_line2": "2 66732  97.4368  71.6373 0001990 263.8004  96.3003 15.17326528  4153"
      },
      "geometry": {
        "type": "Point",
        "coordinates": [
          -77.23416062875451,
          75.6837206258573
        ]
      }
    },
    {
      "type": "Feature",
      "properties": {
        "norad_id": 66733,
        "name": "FLOCK 4H-30",
        "group": "last-30-days",
        "lat": 80.6602490203584,
        "lon": -55.354881237050655,
        "alt_km": 508.51170585253294,
        "timestamp": "2025-12-26T11:25:43.985273+00:00",
        "meta_object_name": "FLOCK 4H-30",
        "meta_object_id": "2025-276BV",
        "meta_epoch": "2025-12-26T01:30:43.503264",
        "meta_mean_motion": 15.17290542,
        "meta_eccentricity": 0.0003154,
        "meta_inclination": 97.443,
        "meta_ra_of_asc_node": 71.5961,
        "meta_arg_of_pericenter": 248.0816,
        "meta_mean_anomaly": 112.0082,
        "meta_ephemeris_type": 0,
        "meta_classification_type": "U",
        "meta_norad_cat_id": 66733,
        "meta_element_set_no": 999,
        "meta_rev_at_epoch": 414,
        "meta_bstar": 0.00043041,
        "meta_mean_motion_dot": 8.513e-05,
        "meta_mean_motion_ddot": 0,
        "tle_line1": "1 66733U 25276BV  25360.06300351  .00008513  00000+0  43041-3 0  9992",
        "tle_line2": "2 66733  97.4430  71.5961 0003154 248.0816 112.0082 15.17290542  4144"
      },
      "geometry": {
        "type": "Point",
        "coordinates": [
          -55.354881237050655,
          80.6602490203584
        ]
      }
    },
    {
      "type": "Feature",
      "properties": {
        "norad_id": 66734,
        "name": "FLOCK 4H-31",
        "group": "last-30-days",
        "lat": 80.60889492978482,
        "lon": -55.86076141119894,
        "alt_km": 508.3360116872227,
        "timestamp": "2025-12-26T11:25:43.985284+00:00",
        "meta_object_name": "FLOCK 4H-31",
        "meta_object_id": "2025-276BW",
        "meta_epoch": "2025-12-26T03:05:39.242688",
        "meta_mean_motion": 15.17242621,
        "meta_eccentricity": 0.000245,
        "meta_inclination": 97.4366,
        "meta_ra_of_asc_node": 71.6354,
        "meta_arg_of_pericenter": 255.3394,
        "meta_mean_anomaly": 104.7568,
        "meta_ephemeris_type": 0,
        "meta_classification_type": "U",
        "meta_norad_cat_id": 66734,
        "meta_element_set_no": 999,
        "meta_rev_at_epoch": 415,
        "meta_bstar": 0.00030386,
        "meta_mean_motion_dot": 5.98e-05,
        "meta_mean_motion_ddot": 0,
        "tle_line1": "1 66734U 25276BW  25360.12892642  .00005980  00000+0  30386-3 0  9992",
        "tle_line2": "2 66734  97.4366  71.6354 0002450 255.3394 104.7568 15.17242621  4153"
      },
      "geometry": {
        "type": "Point",
        "coordinates": [
          -55.86076141119894,
          80.60889492978482
        ]
      }
    },
    {
      "type": "Feature",
      "properties": {
        "norad_id": 66735,
        "name": "FLOCK 4H-32",
        "group": "last-30-days",
        "lat": 81.68245302385242,
        "lon": -44.607108823449344,
        "alt_km": 508.7204814114775,
        "timestamp": "2025-12-26T11:25:43.985293+00:00",
        "meta_object_name": "FLOCK 4H-32",
        "meta_object_id": "2025-276BX",
        "meta_epoch": "2025-12-26T01:31:13.428768",
        "meta_mean_motion": 15.1726705,
        "meta_eccentricity": 0.0003541,
        "meta_inclination": 97.4422,
        "meta_ra_of_asc_node": 71.5921,
        "meta_arg_of_pericenter": 243.2948,
        "meta_mean_anomaly": 116.7923,
        "meta_ephemeris_type": 0,
        "meta_classification_type": "U",
        "meta_norad_cat_id": 66735,
        "meta_element_set_no": 999,
        "meta_rev_at_epoch": 414,
        "meta_bstar": 0.00035347,
        "meta_mean_motion_dot": 6.974e-05,
        "meta_mean_motion_ddot": 0,
        "tle_line1": "1 66735U 25276BX  25360.06334987  .00006974  00000+0  35347-3 0  9995",
        "tle_line2": "2 66735  97.4422  71.5921 0003541 243.2948 116.7923 15.17267050  4149"
      },
      "geometry": {
        "type": "Point",
        "coordinates": [
          -44.607108823449344,
          81.68245302385242
        ]
      }
    },
    {
      "type": "Feature",
      "properties": {
        "norad_id": 66736,
        "name": "FLOCK 4H-33",
        "group": "last-30-days",
        "lat": -18.34169418492633,
        "lon": -110.44230316940018,
        "alt_km": 514.6495002317833,
        "timestamp": "2025-12-26T11:25:43.985301+00:00",
        "meta_object_name": "FLOCK 4H-33",
        "meta_object_id": "2025-276BY",
        "meta_epoch": "2025-12-26T04:13:52.650912",
        "meta_mean_motion": 15.18340488,
        "meta_eccentricity": 0.0002887,
        "meta_inclination": 97.4419,
        "meta_ra_of_asc_node": 71.7463,
        "meta_arg_of_pericenter": 150.7218,
        "meta_mean_anomaly": 209.4179,
        "meta_ephemeris_type": 0,
        "meta_classification_type": "U",
        "meta_norad_cat_id": 66736,
        "meta_element_set_no": 999,
        "meta_rev_at_epoch": 416,
        "meta_bstar": 0.0004823,
        "meta_mean_motion_dot": 9.842e-05,
        "meta_mean_motion_ddot": 0,
        "tle_line1": "1 66736U 25276BY  25360.17630383  .00009842  00000+0  48230-3 0  9999",
        "tle_line2": "2 66736  97.4419  71.7463 0002887 150.7218 209.4179 15.18340488  4166"
      },
      "geometry": {
        "type": "Point",
        "coordinates": [
          -110.44230316940018,
          -18.34169418492633
        ]
      }
    },
    {
      "type": "Feature",
      "properties": {
        "norad_id": 66737,
        "name": "FLOCK 4H-34",
        "group": "last-30-days",
        "lat": -7.382711510072504,
        "lon": -108.9286355236329,
        "alt_km": 513.8012011396331,
        "timestamp": "2025-12-26T11:25:43.985310+00:00",
        "meta_object_name": "FLOCK 4H-34",
        "meta_object_id": "2025-276BZ",
        "meta_epoch": "2025-12-26T04:16:44.887584",
        "meta_mean_motion": 15.18194019,
        "meta_eccentricity": 0.0002521,
        "meta_inclination": 97.4433,
        "meta_ra_of_asc_node": 71.7489,
        "meta_arg_of_pericenter": 156.4025,
        "meta_mean_anomaly": 203.7325,
        "meta_ephemeris_type": 0,
        "meta_classification_type": "U",
        "meta_norad_cat_id": 66737,
        "meta_element_set_no": 999,
        "meta_rev_at_epoch": 341,
        "meta_bstar": 0.00049555,
        "meta_mean_motion_dot": 0.00010072,
        "meta_mean_motion_ddot": 0,
        "tle_line1": "1 66737U 25276BZ  25360.17829731  .00010072  00000+0  49555-3 0  9995",
        "tle_line2": "2 66737  97.4433  71.7489 0002521 156.4025 203.7325 15.18194019  3419"
      },
      "geometry": {
        "type": "Point",
        "coordinates": [
          -108.9286355236329,
          -7.382711510072504
        ]
      }
    },
    {
      "type": "Feature",
      "properties": {
        "norad_id": 66738,
        "name": "FLOCK 4H-35",
        "group": "last-30-days",
        "lat": -17.4531563254399,
        "lon": -110.32303200111207,
        "alt_km": 515.0399496995169,
        "timestamp": "2025-12-26T11:25:43.985319+00:00",
        "meta_object_name": "FLOCK 4H-35",
        "meta_object_id": "2025-276CA",
        "meta_epoch": "2025-12-26T04:14:05.991936",
        "meta_mean_motion": 15.18287496,
        "meta_eccentricity": 0.0002661,
        "meta_inclination": 97.4395,
        "meta_ra_of_asc_node": 71.7367,
        "meta_arg_of_pericenter": 141.6622,
        "meta_mean_anomaly": 218.4802,
        "meta_ephemeris_type": 0,
        "meta_classification_type": "U",
        "meta_norad_cat_id": 66738,
        "meta_element_set_no": 999,
        "meta_rev_at_epoch": 345,
        "meta_bstar": 0.00045691,
        "meta_mean_motion_dot": 9.305e-05,
        "meta_mean_motion_ddot": 0,
        "tle_line1": "1 66738U 25276CA  25360.17645824  .00009305  00000+0  45691-3 0  9999",
        "tle_line2": "2 66738  97.4395  71.7367 0002661 141.6622 218.4802 15.18287496  3455"
      },
      "geometry": {
        "type": "Point",
        "coordinates": [
          -110.32303200111207,
          -17.4531563254399
        ]
      }
    }
  ]
}